stk.v.10.0
BEGIN Ephemeris
NumberOfEphemerisPoints 33
ScenarioEpoch 2 Dec 2015 17:00:00
InterpolationMethod Lagrange
InterpolationOrder 3
DistanceUnit Kilometers
CentralBody Earth
CoordinateSystem Fixed
EphemerisLLATimePos
0	31.2	-105.7	7.5
1	35.2	-117.1	7.5
2	35.2	-111.4	7.5
3	35.2	-105.7	7.5
4	31.2	-100	7.5
5	31.2	-94.3	7.5
6	31.2	-88.6	7.5
7	35.2	-100	7.5
8	35.2	-94.3	7.5
9	35.2	-88.6	7.5
10	31.2	-82.9	7.5
11	35.2	-82.9	7.5
12	35.2	-77.1	7.5
13	39.3	-123.5	7.5
14	39.3	-116.5	7.5
15	39.3	-109.4	7.5
16	43.3	-123.5	7.5
17	43.3	-116.5	7.5
18	43.3	-109.4	7.5
19	47.4	-123.5	7.5
20	47.4	-116.5	7.5
21	47.4	-109.4	7.5
22	39.3	-102.4	7.5
23	39.3	-95.3	7.5
24	39.3	-88.2	7.5
25	43.3	-102.4	7.5
26	43.3	-95.3	7.5
27	43.3	-88.2	7.5
28	47.4	-102.4	7.5
29	47.4	-95.3	7.5
30	47.4	-88.2	7.5
31	39.3	-81.2	7.5
32	43.3	-74.1	7.5
END Ephemeris
